ONEWEB-0320             
1 49190U 21083E   25330.63541757  .00000031  00000+0  46612-4 0  9994
2 49190  87.9192  15.7015 0001786  97.0319 263.1017 13.18683369203284
ONEWEB-0321             
1 49191U 21083F   25330.47575149  .00000050  00000+0  90698-4 0  9993
2 49191  87.9194 314.8606 0002090  81.7158 278.4212 13.20769659210077
ONEWEB-0322             
1 49192U 21083G   25330.59918369  .00000090  00000+0  21077-3 0  9990
2 49192  87.8982   0.5226 0002304  92.6924 267.4469 13.13469962204328
ONEWEB-0324             
1 49193U 21083H   25330.62138685  .00000066  00000+0  13513-3 0  9999
2 49193  87.9196  15.6818 0001736  93.5058 266.6273 13.18683293203308
ONEWEB-0325             
1 49194U 21083J   25330.70057777  .00000063  00000+0  12765-3 0  9996
2 49194  87.9200  15.6846 0001881  97.5239 262.6107 13.18684797203326
ONEWEB-0326             
1 49195U 21083K   25330.63967428  .00000018  00000+0  12746-4 0  9992
2 49195  87.9198  15.6840 0001677 107.4646 252.6670 13.18684378203300
ONEWEB-0327             
1 49196U 21083L   25330.63939307 -.00000009  00000+0 -55192-4 0  9992
2 49196  87.9189  15.7047 0001779 109.7458 250.3866 13.18683883203324
ONEWEB-0328             
1 49197U 21083M   25330.58902162 -.00000181  00000+0 -53097-3 0  9998
2 49197  87.8996   0.4704 0001665  91.1495 268.9825 13.13470866204309
